NORAD_CAT_ID,OBJECT_NAME,OBJECT_TYPE,EPOCH,MEAN_MOTION,ECCENTRICITY,INCLINATION,RA_OF_ASC_NODE,ARG_OF_PERICENTER,MEAN_ANOMALY,BSTAR,MEAN_MOTION_DOT,MEAN_MOTION_DDOT,TLE_LINE0,TLE_LINE1,TLE_LINE2,SEMIMAJOR_AXIS,PERIOD,APOGEE,PERIGEE,DECAYED
51780.0,STARLINK-3617,PAYLOAD,2023-12-16 10:04:45,15.08833189,0.0001681,53.219,34.5078,109.6262,250.4912,-1.2976e-05,-4.95e-06,0.0,0 STARLINK-3617,1 51780U 22017N   23350.41996774 -.00000495  00000-0 -12976-4 0  9992,2 51780  53.2190  34.5078 0001681 109.6262 250.4912 15.08833189101182,6917.901,95.438,540.929,538.603,0.0
51780.0,STARLINK-3617,PAYLOAD,2023-12-17 08:20:09,15.08835164,0.0001653,53.219,30.3471,111.0438,249.0731,6.4555e-05,7.39e-06,0.0,0 STARLINK-3617,1 51780U 22017N   23351.34732794  .00000739  00000-0  64555-4 0  9994,2 51780  53.2190  30.3471 0001653 111.0438 249.0731 15.08835164 99638,6917.895,95.438,540.904,538.617,0.0
51780.0,STARLINK-3617,PAYLOAD,2023-12-18 09:46:18,15.088499,0.0001397,53.2184,25.5893,90.9968,269.1185,0.00018162,2.604e-05,0.0,0 STARLINK-3617,1 51780U 22017N   23352.40715801  .00002604  00000-0  18162-3 0  9997,2 51780  53.2184  25.5893 0001397  90.9968 269.1185 15.08849900101489,6917.85,95.437,540.682,538.749,0.0
51780.0,STARLINK-3617,PAYLOAD,2023-12-19 09:37:06,15.08841265,0.0001495,53.2175,21.1306,89.603,270.5133,1.6357e-05,-2.8e-07,0.0,0 STARLINK-3617,1 51780U 22017N   23353.40076683 -.00000028  00000-0  16357-4 0  9990,2 51780  53.2175  21.1306 0001495  89.6030 270.5133 15.08841265101636,6917.877,95.437,540.776,538.707,0.0
51780.0,STARLINK-3617,PAYLOAD,2023-12-20 09:27:54,15.08840234,0.000189,53.2196,16.6669,69.9052,290.2143,-4.1946e-05,-9.56e-06,0.0,0 STARLINK-3617,1 51780U 22017N   23354.39437626 -.00000956  00000-0 -41946-4 0  9990,2 51780  53.2196  16.6669 0001890  69.9052 290.2143 15.08840234101785,6917.88,95.438,541.052,538.437,0.0
51780.0,STARLINK-3617,PAYLOAD,2023-12-21 07:43:17,15.0883307,0.0001587,53.2192,12.5046,95.7327,264.3846,-3.8644e-06,-3.49e-06,0.0,0 STARLINK-3617,1 51780U 22017N   23355.32173205 -.00000349  00000-0 -38644-5 0  9992,2 51780  53.2192  12.5046 0001587  95.7327 264.3846 15.08833070100231,6917.902,95.438,540.864,538.669,0.0
51780.0,STARLINK-3617,PAYLOAD,2023-12-22 04:23:18,15.08832014,0.0001277,53.2184,8.6382,66.2538,293.8588,-6.555e-05,-1.331e-05,0.0,0 STARLINK-3617,1 51780U 22017N   23356.18285876 -.00001331  00000-0 -65550-4 0  9992,2 51780  53.2184   8.6382 0001277  66.2538 293.8588 15.08832014102053,6917.905,95.438,540.653,538.886,0.0
51780.0,STARLINK-3617,PAYLOAD,2023-12-22 07:34:04,15.08851559,0.0001335,53.218,8.0431,101.741,258.3732,0.00011201,1.496e-05,0.0,0 STARLINK-3617,1 51780U 22017N   23356.31532728  .00001496  00000-0  11201-3 0  9991,2 51780  53.2180   8.0431 0001335 101.7410 258.3732 15.08851559102071,6917.845,95.437,540.634,538.787,0.0
51780.0,STARLINK-3617,PAYLOAD,2023-12-23 04:14:05,15.08833263,0.0001509,53.219,4.1734,110.9255,249.1899,0.000132,1.813e-05,0.0,0 STARLINK-3617,1 51780U 22017N   23357.17645388  .00001813  00000-0  13200-3 0  9997,2 51780  53.2190   4.1734 0001509 110.9255 249.1899 15.08833263102206,6917.901,95.438,540.81,538.722,0.0
51780.0,STARLINK-3617,PAYLOAD,2023-12-23 10:35:38,15.08835489,0.0001656,53.2192,2.9843,123.3656,236.7495,0.00016633,2.36e-05,0.0,0 STARLINK-3617,1 51780U 22017N   23357.44141263  .00002360  00000-0  16633-3 0  9991,2 51780  53.2192   2.9843 0001656 123.3656 236.7495 15.08835489100553,6917.894,95.438,540.905,538.614,0.0
51780.0,STARLINK-3617,PAYLOAD,2023-12-24 07:15:38,15.08849827,0.0001638,53.2177,359.118,89.1119,271.006,0.00013682,1.891e-05,0.0,0 STARLINK-3617,1 51780U 22017N   23358.30253022  .00001891  00000-0  13682-3 0  9993,2 51780  53.2177 359.1180 0001638  89.1119 271.0060 15.08849827102373,6917.85,95.437,540.848,538.582,0.0
51780.0,STARLINK-3617,PAYLOAD,2023-12-25 03:55:39,15.08839231,0.0001395,53.2178,355.2527,81.6311,278.4839,5.0482e-05,5.16e-06,0.0,0 STARLINK-3617,1 51780U 22017N   23359.16365623  .00000516  00000-0  50482-4 0  9992,2 51780  53.2178 355.2527 0001395  81.6311 278.4839 15.08839231102505,6917.883,95.438,540.713,538.783,0.0
51780.0,STARLINK-3617,PAYLOAD,2023-12-25 07:06:26,15.08844665,0.000133,53.2178,354.6608,93.6232,266.4912,6.7877e-05,7.93e-06,0.0,0 STARLINK-3617,1 51780U 22017N   23359.29613443  .00000793  00000-0  67877-4 0  9995,2 51780  53.2178 354.6608 0001330  93.6232 266.4912 15.08844665100832,6917.866,95.437,540.651,538.811,0.0
51780.0,STARLINK-3617,PAYLOAD,2023-12-26 03:46:27,15.08837206,0.0001416,53.2182,350.7947,93.8448,266.2706,-2.0654e-05,-6.17e-06,0.0,0 STARLINK-3617,1 51780U 22017N   23360.15726338 -.00000617  00000-0 -20654-4 0  9999,2 51780  53.2182 350.7947 0001416  93.8448 266.2706 15.08837206102650,6917.889,95.438,540.734,538.774,0.0
51780.0,STARLINK-3617,PAYLOAD,2023-12-26 06:57:13,15.08840291,0.0001454,53.2185,350.1986,86.3927,273.7231,-1.7841e-06,-3.16e-06,0.0,0 STARLINK-3617,1 51780U 22017N   23360.28974137 -.00000316  00000-0 -17841-5 0  9996,2 51780  53.2185 350.1986 0001454  86.3927 273.7231 15.08840291100989,6917.879,95.438,540.75,538.739,0.0
51780.0,STARLINK-3617,PAYLOAD,2023-12-27 03:37:13,15.08845417,0.0001358,53.2188,346.3342,73.7845,286.3296,0.00013991,1.94e-05,0.0,0 STARLINK-3617,1 51780U 22017N   23361.15085642  .00001940  00000-0  13991-3 0  9999,2 51780  53.2188 346.3342 0001358  73.7845 286.3296 15.08845417102806,6917.864,95.437,540.668,538.789,0.0
51780.0,STARLINK-3617,PAYLOAD,2023-12-27 08:23:23,15.08852766,0.000146,53.2177,345.4393,74.7706,285.3448,0.00028334,4.226e-05,0.0,0 STARLINK-3617,1 51780U 22017N   23361.34957357  .00004226  00000-0  28334-3 0  9998,2 51780  53.2177 345.4393 0001460  74.7706 285.3448 15.08852766101140,6917.841,95.437,540.716,538.696,0.0
51780.0,STARLINK-3617,PAYLOAD,2023-12-28 03:28:01,15.08840498,0.0001725,53.2179,341.87,106.6222,253.496,0.00011986,1.62e-05,0.0,0 STARLINK-3617,1 51780U 22017N   23362.14445974  .00001620  00000-0  11986-3 0  9994,2 51780  53.2179 341.8700 0001725 106.6222 253.4960 15.08840498102950,6917.879,95.438,540.937,538.551,0.0
51780.0,STARLINK-3617,PAYLOAD,2023-12-28 08:14:10,15.08846705,0.0001512,53.2178,340.9798,77.8385,282.2776,0.00023674,3.482e-05,0.0,0 STARLINK-3617,1 51780U 22017N   23362.34317939  .00003482  00000-0  23674-3 0  9990,2 51780  53.2178 340.9798 0001512  77.8385 282.2776 15.08846705101297,6917.86,95.437,540.771,538.679,0.0
51780.0,STARLINK-3617,PAYLOAD,2023-12-29 08:04:57,15.08843837,0.0001868,53.2196,336.5163,67.3203,292.7987,8.0193e-05,9.88e-06,0.0,0 STARLINK-3617,1 51780U 22017N   23363.33678222  .00000988  00000-0  80193-4 0  9993,2 51780  53.2196 336.5163 0001868  67.3203 292.7987 15.08843837103139,6917.869,95.437,541.026,538.441,0.0
51780.0,STARLINK-3617,PAYLOAD,2023-12-30 07:55:45,15.08834351,0.000148,53.218,332.0586,83.9306,276.1854,4.6837e-05,4.57e-06,0.0,0 STARLINK-3617,1 51780U 22017N   23364.33038662  .00000457  00000-0  46837-4 0  9990,2 51780  53.2180 332.0586 0001480  83.9306 276.1854 15.08834351103286,6917.898,95.438,540.787,538.739,0.0
51780.0,STARLINK-3617,PAYLOAD,2023-12-31 03:00:22,15.08842679,0.0001552,53.2186,328.4917,96.2163,263.9006,6.8763e-05,8.07e-06,0.0,0 STARLINK-3617,1 51780U 22017N   23365.12526160  .00000807  00000-0  68763-4 0  9994,2 51780  53.2186 328.4917 0001552  96.2163 263.9006 15.08842679103406,6917.872,95.437,540.811,538.664,0.0
51780.0,STARLINK-3617,PAYLOAD,2023-12-31 07:46:31,15.08845898,0.000159,53.2189,327.5994,96.7156,263.4017,9.2804e-05,1.189e-05,0.0,0 STARLINK-3617,1 51780U 22017N   23365.32397897  .00001189  00000-0  92804-4 0  9996,2 51780  53.2189 327.5994 0001590  96.7156 263.4017 15.08845898101741,6917.862,95.437,540.827,538.627,0.0
51780.0,STARLINK-3617,PAYLOAD,2024-01-01 02:51:10,15.08836293,0.0001509,53.2187,324.0283,99.9216,260.1947,5.5134e-05,5.9e-06,0.0,0 STARLINK-3617,1 51780U 22017N   24001.11886600  .00000590  00000-0  55134-4 0  9996,2 51780  53.2187 324.0283 0001509  99.9216 260.1947 15.08836293103550,6917.892,95.438,540.801,538.713,0.0
51780.0,STARLINK-3617,PAYLOAD,2024-01-01 04:26:33,15.08836725,0.0001521,53.2193,323.7326,93.7222,266.3944,9.1555e-05,1.169e-05,0.0,0 STARLINK-3617,1 51780U 22017N   24001.18510643  .00001169  00000-0  91555-4 0  9994,2 51780  53.2193 323.7326 0001521  93.7222 266.3944 15.08836725101872,6917.89,95.438,540.808,538.703,0.0
51780.0,STARLINK-3617,PAYLOAD,2024-01-01 20:20:24,15.08836926,0.000151,53.2195,320.762,98.4382,261.6782,5.4384e-05,5.78e-06,0.0,0 STARLINK-3617,1 51780U 22017N   24001.84750834  .00000578  00000-0  54384-4 0  9997,2 51780  53.2195 320.7620 0001510  98.4382 261.6782 15.08836926101977,6917.89,95.438,540.799,538.71,0.0
51780.0,STARLINK-3617,PAYLOAD,2024-01-02 05:52:43,15.08847479,0.0001671,53.2193,318.9783,111.4437,248.6733,4.3989e-05,4.12e-06,0.0,0 STARLINK-3617,1 51780U 22017N   24002.24494236  .00000412  00000-0  43989-4 0  9999,2 51780  53.2193 318.9783 0001671 111.4437 248.6733 15.08847479103720,6917.858,95.437,540.879,538.567,0.0
51780.0,STARLINK-3617,PAYLOAD,2024-01-03 02:32:44,15.08845949,0.0001662,53.2191,315.1139,101.9447,258.1732,2.5651e-05,1.2e-06,0.0,0 STARLINK-3617,1 51780U 22017N   24003.10606580  .00000120  00000-0  25651-4 0  9994,2 51780  53.2191 315.1139 0001662 101.9447 258.1732 15.08845949103856,6917.862,95.437,540.877,538.577,0.0
51780.0,STARLINK-3617,PAYLOAD,2024-01-03 05:43:29,15.08853163,0.0001466,53.2191,314.5181,91.5845,268.5315,0.00019389,2.8e-05,0.0,0 STARLINK-3617,1 51780U 22017N   24003.23853651  .00002800  00000-0  19389-3 0  9998,2 51780  53.2191 314.5181 0001466  91.5845 268.5315 15.08853163103875,6917.84,95.437,540.719,538.691,0.0
51780.0,STARLINK-3617,PAYLOAD,2024-01-04 03:58:54,15.08842767,0.0001644,53.2194,310.3538,82.767,277.3509,4.3633e-05,4.06e-06,0.0,0 STARLINK-3617,1 51780U 22017N   24004.16590718  .00000406  00000-0  43633-4 0  9993,2 51780  53.2194 310.3538 0001644  82.7670 277.3509 15.08842767104012,6917.872,95.437,540.874,538.6,0.0
